[{"OBJECT_NAME":"ONEWEB-0645","OBJECT_ID":"2023-029P","EPOCH":"2025-09-03T21:08:53.748096","MEAN_MOTION":13.197256,"ECCENTRICITY":0.00016935,"INCLINATION":87.9269,"RA_OF_ASC_NODE":1.9129,"ARG_OF_PERICENTER":88.7847,"MEAN_ANOMALY":271.3479,"EPHEMERIS_TYPE":0,"CLASSIFICATION_TYPE":"U","NORAD_CAT_ID":55809,"ELEMENT_SET_NO":999,"REV_AT_EPOCH":12114,"BSTAR":1.64125e-5,"MEAN_MOTION_DOT":2.0e-7,"MEAN_MOTION_DDOT":0},{"OBJECT_NAME":"ONEWEB-0646","OBJECT_ID":"2023-029Q","EPOCH":"2025-09-04T07:11:52.903968","MEAN_MOTION":13.1925503,"ECCENTRICITY":0.00015287,"INCLINATION":87.927,"RA_OF_ASC_NODE":1.8259,"ARG_OF_PERICENTER":101.9539,"MEAN_ANOMALY":258.1765,"EPHEMERIS_TYPE":0,"CLASSIFICATION_TYPE":"U","NORAD_CAT_ID":55810,"ELEMENT_SET_NO":999,"REV_AT_EPOCH":12118,"BSTAR":-0.00015362757,"MEAN_MOTION_DOT":-4.8e-7,"MEAN_MOTION_DDOT":0},{"OBJECT_NAME":"ONEWEB-0648","OBJECT_ID":"2023-029R","EPOCH":"2025-09-04T06:57:46.704960","MEAN_MOTION":13.14487672,"ECCENTRICITY":0.00010693,"INCLINATION":87.908,"RA_OF_ASC_NODE":346.6254,"ARG_OF_PERICENTER":74.6795,"MEAN_ANOMALY":285.4453,"EPHEMERIS_TYPE":0,"CLASSIFICATION_TYPE":"U","NORAD_CAT_ID":55811,"ELEMENT_SET_NO":999,"REV_AT_EPOCH":12183,"BSTAR":-0.00538705,"MEAN_MOTION_DOT":-1.984e-5,"MEAN_MOTION_DDOT":0},{"OBJECT_NAME":"ONEWEB-0649","OBJECT_ID":"2023-029S","EPOCH":"2025-09-03T19:09:28.693728","MEAN_MOTION":13.19725446,"ECCENTRICITY":0.00013952,"INCLINATION":87.9274,"RA_OF_ASC_NODE":1.9178,"ARG_OF_PERICENTER":88.6927,"MEAN_ANOMALY":271.4365,"EPHEMERIS_TYPE":0,"CLASSIFICATION_TYPE":"U","NORAD_CAT_ID":55812,"ELEMENT_SET_NO":999,"REV_AT_EPOCH":12115,"BSTAR":-1.0656389e-5,"MEAN_MOTION_DOT":9.0e-8,"MEAN_MOTION_DDOT":0},{"OBJECT_NAME":"ONEWEB-0650","OBJECT_ID":"2023-029T","EPOCH":"2025-09-04T05:57:42.855552","MEAN_MOTION":13.19726614,"ECCENTRICITY":0.00015795,"INCLINATION":87.9276,"RA_OF_ASC_NODE":1.8392,"ARG_OF_PERICENTER":98.9573,"MEAN_ANOMALY":261.1739,"EPHEMERIS_TYPE":0,"CLASSIFICATION_TYPE":"U","NORAD_CAT_ID":55813,"ELEMENT_SET_NO":999,"REV_AT_EPOCH":12118,"BSTAR":0.00013025458,"MEAN_MOTION_DOT":6.5e-7,"MEAN_MOTION_DDOT":0},{"OBJECT_NAME":"ONEWEB-0652","OBJECT_ID":"2023-029U","EPOCH":"2025-09-04T04:40:44.721984","MEAN_MOTION":13.14502839,"ECCENTRICITY":0.00019767,"INCLINATION":87.9091,"RA_OF_ASC_NODE":346.658,"ARG_OF_PERICENTER":101.2479,"MEAN_ANOMALY":258.8873,"EPHEMERIS_TYPE":0,"CLASSIFICATION_TYPE":"U","NORAD_CAT_ID":55814,"ELEMENT_SET_NO":999,"REV_AT_EPOCH":12179,"BSTAR":0.00053992667,"MEAN_MOTION_DOT":2.13e-6,"MEAN_MOTION_DDOT":0},{"OBJECT_NAME":"ONEWEB-0653","OBJECT_ID":"2023-029V","EPOCH":"2025-09-04T06:07:30.995904","MEAN_MOTION":13.14504188,"ECCENTRICITY":0.0002021,"INCLINATION":87.9091,"RA_OF_ASC_NODE":346.6355,"ARG_OF_PERICENTER":96.1181,"MEAN_ANOMALY":264.0179,"EPHEMERIS_TYPE":0,"CLASSIFICATION_TYPE":"U","NORAD_CAT_ID":55815,"ELEMENT_SET_NO":999,"REV_AT_EPOCH":12183,"BSTAR":0.0004098736,"MEAN_MOTION_DOT":1.65e-6,"MEAN_MOTION_DDOT":0},{"OBJECT_NAME":"ONEWEB-0654","OBJECT_ID":"2023-029W","EPOCH":"2025-09-04T06:00:38.495520","MEAN_MOTION":13.1450493,"ECCENTRICITY":0.00022422,"INCLINATION":87.9093,"RA_OF_ASC_NODE":346.6346,"ARG_OF_PERICENTER":101.2852,"MEAN_ANOMALY":258.853,"EPHEMERIS_TYPE":0,"CLASSIFICATION_TYPE":"U","NORAD_CAT_ID":55816,"ELEMENT_SET_NO":999,"REV_AT_EPOCH":12185,"BSTAR":0.0002012953,"MEAN_MOTION_DOT":8.7e-7,"MEAN_MOTION_DDOT":0},{"OBJECT_NAME":"ONEWEB-0656","OBJECT_ID":"2023-029X","EPOCH":"2025-09-04T05:19:57.673056","MEAN_MOTION":13.2077244,"ECCENTRICITY":0.00023658,"INCLINATION":87.9294,"RA_OF_ASC_NODE":331.4256,"ARG_OF_PERICENTER":100.1363,"MEAN_ANOMALY":260.0037,"EPHEMERIS_TYPE":0,"CLASSIFICATION_TYPE":"U","NORAD_CAT_ID":55817,"ELEMENT_SET_NO":999,"REV_AT_EPOCH":12340,"BSTAR":9.6265504e-5,"MEAN_MOTION_DOT":5.2e-7,"MEAN_MOTION_DDOT":0},{"OBJECT_NAME":"ONEWEB-0657","OBJECT_ID":"2023-029Y","EPOCH":"2025-09-04T00:23:22.255584","MEAN_MOTION":13.19726762,"ECCENTRICITY":0.00021453,"INCLINATION":87.9277,"RA_OF_ASC_NODE":1.8898,"ARG_OF_PERICENTER":120.1474,"MEAN_ANOMALY":239.9871,"EPHEMERIS_TYPE":0,"CLASSIFICATION_TYPE":"U","NORAD_CAT_ID":55818,"ELEMENT_SET_NO":999,"REV_AT_EPOCH":12116,"BSTAR":3.8079218e-5,"MEAN_MOTION_DOT":2.8e-7,"MEAN_MOTION_DDOT":0},{"OBJECT_NAME":"ONEWEB-0658","OBJECT_ID":"2023-029Z","EPOCH":"2025-09-04T00:16:32.501856","MEAN_MOTION":13.19725386,"ECCENTRICITY":0.00012871,"INCLINATION":87.9287,"RA_OF_ASC_NODE":1.8275,"ARG_OF_PERICENTER":98.0687,"MEAN_ANOMALY":262.0592,"EPHEMERIS_TYPE":0,"CLASSIFICATION_TYPE":"U","NORAD_CAT_ID":55819,"ELEMENT_SET_NO":999,"REV_AT_EPOCH":12117,"BSTAR":-3.0008396e-5,"MEAN_MOTION_DOT":1.0e-8,"MEAN_MOTION_DDOT":0},{"OBJECT_NAME":"ONEWEB-0660","OBJECT_ID":"2023-029AA","EPOCH":"2025-09-04T05:28:41.396160","MEAN_MOTION":13.14504343,"ECCENTRICITY":0.00017311,"INCLINATION":87.9097,"RA_OF_ASC_NODE":346.6114,"ARG_OF_PERICENTER":89.3982,"MEAN_ANOMALY":270.7346,"EPHEMERIS_TYPE":0,"CLASSIFICATION_TYPE":"U","NORAD_CAT_ID":55820,"ELEMENT_SET_NO":999,"REV_AT_EPOCH":12183,"BSTAR":-0.000462928,"MEAN_MOTION_DOT":-1.59e-6,"MEAN_MOTION_DDOT":0},{"OBJECT_NAME":"ONEWEB-0661","OBJECT_ID":"2023-029AB","EPOCH":"2025-09-04T00:50:06.674208","MEAN_MOTION":13.14502817,"ECCENTRICITY":0.00018054,"INCLINATION":87.9098,"RA_OF_ASC_NODE":346.7216,"ARG_OF_PERICENTER":87.119,"MEAN_ANOMALY":273.0146,"EPHEMERIS_TYPE":0,"CLASSIFICATION_TYPE":"U","NORAD_CAT_ID":55821,"ELEMENT_SET_NO":999,"REV_AT_EPOCH":12179,"BSTAR":0.00059989779,"MEAN_MOTION_DOT":2.35e-6,"MEAN_MOTION_DDOT":0},{"OBJECT_NAME":"ONEWEB-0662","OBJECT_ID":"2023-029AC","EPOCH":"2025-09-04T05:19:33.443040","MEAN_MOTION":13.14503099,"ECCENTRICITY":0.00016348,"INCLINATION":87.9089,"RA_OF_ASC_NODE":346.6907,"ARG_OF_PERICENTER":89.7158,"MEAN_ANOMALY":270.4159,"EPHEMERIS_TYPE":0,"CLASSIFICATION_TYPE":"U","NORAD_CAT_ID":55822,"ELEMENT_SET_NO":999,"REV_AT_EPOCH":12186,"BSTAR":-0.00035535947,"MEAN_MOTION_DOT":-1.19e-6,"MEAN_MOTION_DDOT":0},{"OBJECT_NAME":"ONEWEB-0663","OBJECT_ID":"2023-029AD","EPOCH":"2025-09-04T04:46:41.661984","MEAN_MOTION":13.20844711,"ECCENTRICITY":0.00015535,"INCLINATION":87.9308,"RA_OF_ASC_NODE":331.4876,"ARG_OF_PERICENTER":87.9138,"MEAN_ANOMALY":272.2173,"EPHEMERIS_TYPE":0,"CLASSIFICATION_TYPE":"U","NORAD_CAT_ID":55823,"ELEMENT_SET_NO":999,"REV_AT_EPOCH":12339,"BSTAR":0.00022109089,"MEAN_MOTION_DOT":1.03e-6,"MEAN_MOTION_DDOT":0},{"OBJECT_NAME":"ONEWEB-0664","OBJECT_ID":"2023-029AE","EPOCH":"2025-09-04T05:01:47.140032","MEAN_MOTION":13.20770068,"ECCENTRICITY":0.00021436,"INCLINATION":87.9296,"RA_OF_ASC_NODE":331.5061,"ARG_OF_PERICENTER":90.4778,"MEAN_ANOMALY":269.6601,"EPHEMERIS_TYPE":0,"CLASSIFICATION_TYPE":"U","NORAD_CAT_ID":55824,"ELEMENT_SET_NO":999,"REV_AT_EPOCH":12339,"BSTAR":1.2949506e-5,"MEAN_MOTION_DOT":1.8e-7,"MEAN_MOTION_DDOT":0},{"OBJECT_NAME":"ONEWEB-0665","OBJECT_ID":"2023-029AF","EPOCH":"2025-09-04T04:24:45.045216","MEAN_MOTION":13.14502817,"ECCENTRICITY":0.00016242,"INCLINATION":87.9099,"RA_OF_ASC_NODE":346.667,"ARG_OF_PERICENTER":92.4259,"MEAN_ANOMALY":267.7056,"EPHEMERIS_TYPE":0,"CLASSIFICATION_TYPE":"U","NORAD_CAT_ID":55825,"ELEMENT_SET_NO":999,"REV_AT_EPOCH":12183,"BSTAR":0.00062770991,"MEAN_MOTION_DOT":2.45e-6,"MEAN_MOTION_DDOT":0},{"OBJECT_NAME":"ONEWEB-0666","OBJECT_ID":"2023-029AG","EPOCH":"2025-09-04T04:52:42.043296","MEAN_MOTION":13.20770134,"ECCENTRICITY":0.00022809,"INCLINATION":87.9289,"RA_OF_ASC_NODE":331.4955,"ARG_OF_PERICENTER":116.873,"MEAN_ANOMALY":243.2637,"EPHEMERIS_TYPE":0,"CLASSIFICATION_TYPE":"U","NORAD_CAT_ID":55826,"ELEMENT_SET_NO":999,"REV_AT_EPOCH":12340,"BSTAR":-0.00010795186,"MEAN_MOTION_DOT":-3.1e-7,"MEAN_MOTION_DDOT":0},{"OBJECT_NAME":"ONEWEB-0667","OBJECT_ID":"2023-029AH","EPOCH":"2025-09-04T04:43:35.934816","MEAN_MOTION":13.20770243,"ECCENTRICITY":0.00018157,"INCLINATION":87.9293,"RA_OF_ASC_NODE":331.4245,"ARG_OF_PERICENTER":93.0306,"MEAN_ANOMALY":267.1035,"EPHEMERIS_TYPE":0,"CLASSIFICATION_TYPE":"U","NORAD_CAT_ID":55827,"ELEMENT_SET_NO":999,"REV_AT_EPOCH":12339,"BSTAR":0.00020724157,"MEAN_MOTION_DOT":9.7e-7,"MEAN_MOTION_DDOT":0},{"OBJECT_NAME":"ONEWEB-0669","OBJECT_ID":"2023-029AJ","EPOCH":"2025-09-04T04:36:46.731456","MEAN_MOTION":13.20773191,"ECCENTRICITY":0.00026205,"INCLINATION":87.9299,"RA_OF_ASC_NODE":331.4645,"ARG_OF_PERICENTER":97.5803,"MEAN_ANOMALY":262.5628,"EPHEMERIS_TYPE":0,"CLASSIFICATION_TYPE":"U","NORAD_CAT_ID":55828,"ELEMENT_SET_NO":999,"REV_AT_EPOCH":12339,"BSTAR":0.00014846537,"MEAN_MOTION_DOT":7.3e-7,"MEAN_MOTION_DDOT":0},{"OBJECT_NAME":"ONEWEB-0670","OBJECT_ID":"2023-029AK","EPOCH":"2025-09-04T00:13:34.091904","MEAN_MOTION":13.14502437,"ECCENTRICITY":0.00019564,"INCLINATION":87.9096,"RA_OF_ASC_NODE":346.7218,"ARG_OF_PERICENTER":88.1438,"MEAN_ANOMALY":271.9916,"EPHEMERIS_TYPE":0,"CLASSIFICATION_TYPE":"U","NORAD_CAT_ID":55829,"ELEMENT_SET_NO":999,"REV_AT_EPOCH":12183,"BSTAR":-0.00055667235,"MEAN_MOTION_DOT":-1.94e-6,"MEAN_MOTION_DDOT":0},{"OBJECT_NAME":"ONEWEB-0671","OBJECT_ID":"2023-029AL","EPOCH":"2025-09-04T05:37:13.706688","MEAN_MOTION":13.19726884,"ECCENTRICITY":0.00017392,"INCLINATION":87.9275,"RA_OF_ASC_NODE":1.8392,"ARG_OF_PERICENTER":91.4463,"MEAN_ANOMALY":268.6869,"EPHEMERIS_TYPE":0,"CLASSIFICATION_TYPE":"U","NORAD_CAT_ID":55830,"ELEMENT_SET_NO":999,"REV_AT_EPOCH":12118,"BSTAR":-6.5542334e-5,"MEAN_MOTION_DOT":-1.3e-7,"MEAN_MOTION_DDOT":0},{"OBJECT_NAME":"ONEWEB-0672","OBJECT_ID":"2023-029AM","EPOCH":"2025-09-04T04:29:58.383456","MEAN_MOTION":13.20772611,"ECCENTRICITY":0.00021286,"INCLINATION":87.929,"RA_OF_ASC_NODE":331.4494,"ARG_OF_PERICENTER":105.557,"MEAN_ANOMALY":254.5799,"EPHEMERIS_TYPE":0,"CLASSIFICATION_TYPE":"U","NORAD_CAT_ID":55831,"ELEMENT_SET_NO":999,"REV_AT_EPOCH":12339,"BSTAR":0.00033231198,"MEAN_MOTION_DOT":1.48e-6,"MEAN_MOTION_DDOT":0}]
